{
    "links": {
        "self": "http://www.neowsapp.com/rest/v1/neo/3827316?api_key=iIulBulltgU6a56xZRHN4H3l9WmuAYTsLGpBGhQ2"
    },
    "id": "3827316",
    "neo_reference_id": "3827316",
    "name": "(2018 RZ1)",
    "designation": "2018 RZ1",
    "nasa_jpl_url": "http://ssd.jpl.nasa.gov/sbdb.cgi?sstr=3827316",
    "absolute_magnitude_h": 23.7,
    "estimated_diameter": {
        "kilometers": {
            "estimated_diameter_min": 0.0483676488,
            "estimated_diameter_max": 0.1081533507
        },
        "meters": {
            "estimated_diameter_min": 48.3676488219,
            "estimated_diameter_max": 108.1533506775
        },
        "miles": {
            "estimated_diameter_min": 0.0300542543,
            "estimated_diameter_max": 0.0672033557
        },
        "feet": {
            "estimated_diameter_min": 158.6865169607,
            "estimated_diameter_max": 354.8338390368
        }
    },
    "is_potentially_hazardous_asteroid": false,
    "close_approach_data": [
        {
            "close_approach_date": "1921-09-29",
            "close_approach_date_full": "1921-Sep-29 14:46",
            "epoch_date_close_approach": -1522833240000,
            "relative_velocity": {
                "kilometers_per_second": "7.8304428913",
                "kilometers_per_hour": "28189.5944087134",
                "miles_per_hour": "17515.9177035698"
            },
            "miss_distance": {
                "astronomical": "0.085310803",
                "lunar": "33.185902367",
                "kilometers": "12762314.41678961",
                "miles": "7930134.453372218"
            },
            "orbiting_body": "Earth"
        },
        {
            "close_approach_date": "1967-09-08",
            "close_approach_date_full": "1967-Sep-08 08:46",
            "epoch_date_close_approach": -73062840000,
            "relative_velocity": {
                "kilometers_per_second": "15.1866123514",
                "kilometers_per_hour": "54671.8044649259",
                "miles_per_hour": "33970.9331687758"
            },
            "miss_distance": {
                "astronomical": "0.2902285306",
                "lunar": "112.8988984034",
                "kilometers": "43417569.990989822",
                "miles": "26978426.9861186636"
            },
            "orbiting_body": "Earth"
        },
        {
            "close_approach_date": "1990-08-27",
            "close_approach_date_full": "1990-Aug-27 22:13",
            "epoch_date_close_approach": 651795180000,
            "relative_velocity": {
                "kilometers_per_second": "20.9134278229",
                "kilometers_per_hour": "75288.3401624033",
                "miles_per_hour": "46781.2466970222"
            },
            "miss_distance": {
                "astronomical": "0.4920070908",
                "lunar": "191.3907583212",
                "kilometers": "73603212.808576596",
                "miles": "45734915.6830291848"
            },
            "orbiting_body": "Earth"
        },
        {
            "close_approach_date": "2018-10-05",
            "close_approach_date_full": "2018-Oct-05 22:50",
            "epoch_date_close_approach": 1538779800000,
            "relative_velocity": {
                "kilometers_per_second": "7.1414779421",
                "kilometers_per_hour": "25709.3205917264",
                "miles_per_hour": "15974.7720087869"
            },
            "miss_distance": {
                "astronomical": "0.0995236258",
                "lunar": "38.7146904362",
                "kilometers": "14888522.434357046",
                "miles": "9251298.8522813948"
            },
            "orbiting_body": "Earth"
        },
        {
            "close_approach_date": "2041-09-25",
            "close_approach_date_full": "2041-Sep-25 01:04",
            "epoch_date_close_approach": 2263683840000,
            "relative_velocity": {
                "kilometers_per_second": "8.941092487",
                "kilometers_per_hour": "32187.9329531846",
                "miles_per_hour": "20000.3297841607"
            },
            "miss_distance": {
                "astronomical": "0.0942041796",
                "lunar": "36.6454258644",
                "kilometers": "14092744.613257452",
                "miles": "8756825.4432867576"
            },
            "orbiting_body": "Earth"
        }
    ],
    "orbital_data": {
        "orbit_id": "12",
        "orbit_determination_date": "2018-12-19 07:02:47",
        "first_observation_date": "2018-09-07",
        "last_observation_date": "2018-12-11",
        "data_arc_in_days": 95,
        "observations_used": 62,
        "orbit_uncertainty": "6",
        "minimum_orbit_intersection": ".0875592",
        "jupiter_tisserand_invariant": "3.840",
        "epoch_osculation": "2459000.5",
        "eccentricity": ".4515990541659137",
        "semi_major_axis": "1.868067964033344",
        "inclination": "9.322353966662138",
        "ascending_node_longitude": "164.6493908454329",
        "orbital_period": "932.5828742236347",
        "perihelion_distance": "1.024450238358242",
        "perihelion_argument": "229.6814600106167",
        "aphelion_distance": "2.711685689708446",
        "perihelion_time": "2459351.337595595367",
        "mean_anomaly": "224.5680315334154",
        "mean_motion": ".3860246739998268",
        "equinox": "J2000",
        "orbit_class": {
            "orbit_class_type": "AMO",
            "orbit_class_description": "Near-Earth asteroid orbits similar to that of 1221 Amor",
            "orbit_class_range": "1.017 AU < q (perihelion) < 1.3 AU"
        }
    },
    "is_sentry_object": false
}